satname,norad_id,inclination_deg,eccentricity,mean_motion_rev_per_day,perigee_km,apogee_km,l1,l2
STARLINK-1225,45187,53.1573,0.0001538,15.30995896,471.78601675522987,473.8933771872189,1 45187U 20012K   26109.75536177  .00028528  00000+0  94802-3 0  9999,2 45187  53.1573 208.8837 0001538  25.5474 334.5603 15.30995896341222
STARLINK-1230,45189,53.1568,0.0001625,15.31149033,471.2696821812824,473.49610114607367,1 45189U 20012M   26111.52732641  .00027802  00000+0  91993-3 0  9995,2 45189  53.1568 200.6970 0001625  30.0801 330.0293 15.31149033338720
STARLINK-1234,45190,53.0407,0.0009135,15.68435666,357.2175033555386,369.53424737883415,1 45190U 20012N   26111.98628214  .00052599  00000+0  45875-3 0  9996,2 45190  53.0407 112.4778 0009135  63.0813 297.1135 15.68435666342668
STARLINK-1269,45197,53.1568,0.0001306,15.31204295,471.3234082957388,473.1127210386303,1 45197U 20012V   26111.52362006  .00036269  00000+0  11931-2 0  9998,2 45197  53.1568 200.5704 0001306  16.4446 343.6597 15.31204295341477
STARLINK-1154,45198,53.0424,0.000379,15.52912156,405.6565004249778,410.8005654989629,1 45198U 20012W   26111.44473633  .00054477  00000+0  86255-3 0  9992,2 45198  53.0424 164.9331 0003790 319.5447  40.5279 15.52912156341929
STARLINK-1199,45201,53.1546,0.0002048,15.31114373,471.0832675950478,473.8892828885864,1 45201U 20012Z   26111.49345837  .00040188  00000+0  13237-2 0  9999,2 45201  53.1546 184.9610 0002048  27.1018 333.0090 15.31114373341713
STARLINK-1209,45206,53.042,0.0012255,15.58580865,383.46691816202565,400.05994411875145,1 45206U 20012AE  26111.73528526  .00071839  00000+0  91638-3 0  9998,2 45206  53.0420 125.2883 0012255  47.6423 312.5624 15.58580865341612
STARLINK-1231,45212,53.0364,0.0003585,15.24686899,489.26293091092157,494.1886225218268,1 45212U 20012AL  26111.46636632  .00041377  00000+0  16561-2 0  9998,2 45212  53.0364 178.7365 0003585 301.8032  58.2615 15.24686899341746
STARLINK-1271,45217,53.1554,0.0001845,15.31022644,471.49591213258645,474.0238930896503,1 45217U 20012AR  26111.55776036  .00045515  00000+0  15008-2 0  9999,2 45217  53.1554 184.8017 0001845  35.2670 324.8452 15.31022644341727
STARLINK-1191,45222,53.157,0.0005262,15.34385963,459.1452893592168,466.3446335354438,1 45222U 20012AW  26111.84883766  .00034752  00000+0  10351-2 0  9993,2 45222  53.1570 157.7116 0005262  21.4593 338.6629 15.34385963342132
STARLINK-1212,45223,53.0435,0.0006583,15.60491809,381.78246853154997,390.68844130569596,1 45223U 20012AX  26111.93764060  .00103092  00000+0  12185-2 0  9990,2 45223  53.0435 140.5426 0006583 354.1656   5.9279 15.60491809342376
STARLINK-1215,45225,53.1566,0.0002443,15.31215387,470.51144868951724,473.8585160100938,1 45225U 20012AZ  26111.82384346  .00063604  00000+0  20749-2 0  9994,2 45225  53.1566 157.8921 0002443  44.7922 315.3276 15.31215387342080
STARLINK-1221,45227,53.0662,0.0003689,15.4337306,433.648917075443,438.67650740313366,1 45227U 20012BB  26111.15070212  .00015415  00000+0  34855-3 0  9997,2 45227  53.0662  68.1634 0003689 113.6792 246.4600 15.43373060343269
STARLINK-1222,45228,53.0533,6.06e-05,15.5209208,410.2073901097783,411.03018731137036,1 45228U 20012BC  26111.79752447  .00029222  00000+0  48163-3 0  9993,2 45228  53.0533 135.7101 0000606   2.1646 357.9366 15.52092080342315
STARLINK-1226,45229,53.1584,0.0002907,15.39172084,446.5717398586621,450.54077931978736,1 45229U 20012BD  26111.84745111  .00036822  00000+0  93970-3 0  9990,2 45229  53.1584 156.6139 0002907  41.4804 318.6421 15.39172084342048
STARLINK-1227,45230,53.1561,0.0003816,15.39215917,445.8216375749889,451.0316709559247,1 45230U 20012BE  26111.40632143  .00046509  00000+0  11810-2 0  9999,2 45230  53.1561 158.8475 0003816  32.0001 328.1235 15.39215917342094
STARLINK-1246,45235,53.1565,0.0001596,15.31166493,471.2374789258729,473.4241482519701,1 45235U 20012BK  26111.53360341  .00052349  00000+0  17151-2 0  9999,2 45235  53.1565 200.1896 0001596  31.4562 328.6534 15.31166493341530
STARLINK-1270,45237,53.0434,0.0005452,15.5413692,400.9646750356851,408.36063978212405,1 45237U 20012BM  26111.37761102  .00066547  00000+0  10046-2 0  9994,2 45237  53.0434 142.4893 0005452  10.0356 350.0761 15.54136920342292
STARLINK-1279,45360,53.0404,0.0006047,15.66527946,364.76807935958914,372.9278829958248,1 45360U 20019A   26111.57286705  .00133561  00000+0  12397-2 0  9993,2 45360  53.0404 249.2145 0006047 306.4957  53.5501 15.66527946337377
STARLINK-1301,45361,53.0405,0.0003754,15.70431806,355.13339017071394,360.1906280667599,1 45361U 20019B   26111.81814407  .00062249  00000+0  49944-3 0  9990,2 45361  53.0405 251.5119 0003754 344.5037  15.5864 15.70431806337374
STARLINK-1262,45366,53.1567,7.87e-05,15.30226351,474.59703859630736,475.6757438280847,1 45366U 20019G   26111.86411763  .00039117  00000+0  13248-2 0  9993,2 45366  53.1567 324.7641 0000787 157.5620 202.5415 15.30226351336366
STARLINK-1273,45367,53.0492,0.0002771,15.50586248,413.1309045772323,416.89566846602156,1 45367U 20019H   26111.93366378  .00105390  00000+0  17945-2 0  9998,2 45367  53.0492 308.0708 0002771 177.8157 182.2864 15.50586248336590
STARLINK-1277,45369,53.0486,0.000526,15.56347984,394.6726619634319,401.80140744794335,1 45369U 20019K   26111.81888795  .00070886  00000+0  98571-3 0  9995,2 45369  53.0486 304.8001 0005260 190.1016 169.9890 15.56347984336637
STARLINK-1281,45370,53.1608,5.68e-05,15.3114901,471.9938507328616,472.7720698003486,1 45370U 20019L   26111.57834870  .00033122  00000+0  10929-2 0  9997,2 45370  53.1608 326.0210 0000568 151.6896 208.4136 15.31149010336329
STARLINK-1300,45374,53.1605,2.96e-05,15.31291899,471.754030464831,472.15955601739097,1 45374U 20019Q   26111.86102439  .00036967  00000+0  12124-2 0  9991,2 45374  53.1605 324.7091 0000296  69.1769 290.9264 15.31291899336367
STARLINK-1302,45375,53.0482,0.0001581,15.61073881,383.4846975035898,385.6230603595086,1 45375U 20019R   26111.82242718  .00055643  00000+0  65025-3 0  9994,2 45375  53.0482 302.3989 0001581 154.5606 205.5485 15.61073881336667
STARLINK-1304,45376,53.047,0.0002582,15.55519117,398.89375873289373,402.3943212619479,1 45376U 20019S   26111.78999721  .00053653  00000+0  77290-3 0  9999,2 45376  53.0470 302.0419 0002582 201.9088 158.1812 15.55519117336660
STARLINK-1305,45377,53.0409,0.0006606,15.61693478,378.2987911150303,387.231294894249,1 45377U 20019T   26111.89830364  .00119035  00000+0  13398-2 0  9994,2 45377  53.0409 282.5753 0006606 263.2163  96.8099 15.61693478336959
STARLINK-1319,45379,53.0431,0.0001519,15.70541488,356.3252796368424,358.37152010132377,1 45379U 20019V   26111.95105782  .00061519  00000+0  49155-3 0  9996,2 45379  53.0431 276.4489 0001519 246.7075 113.3782 15.70541488337048
STARLINK-1266,45383,53.0473,0.0003466,15.52236381,407.8452085517165,412.5508824052422,1 45383U 20019Z   26111.88941811  .00058566  00000+0  94909-3 0  9999,2 45383  53.0473 285.9938 0003466 200.2874 159.7998 15.52236381336896
STARLINK-1267,45384,53.0493,0.0002774,15.57547755,392.8779164422185,396.63551787649885,1 45384U 20019AA  26111.84526242  .00079082  00000+0  10502-2 0  9995,2 45384  53.0493 278.7512 0002774 315.0136  45.0650 15.57547755336992
STARLINK-1272,45386,53.0422,0.0006018,15.64478924,370.6739022945203,378.8016623825433,1 45386U 20019AC  26111.64548332  .00069274  00000+0  70594-3 0  9999,2 45386  53.0422 260.3900 0006018 288.8120  71.2241 15.64478924337233
STARLINK-1274,45387,53.0255,0.0005642,15.54059531,401.06085266838727,408.7148178925172,1 45387U 20019AD  26111.64598745  .00067204  00000+0  10171-2 0  9998,2 45387  53.0255 256.4786 0005642 328.1142  31.9526 15.54059531337282
STARLINK-1280,45388,53.0403,0.0002294,15.71159673,354.03681619686904,357.1262462589966,1 45388U 20019AE  26111.85518822  .00066044  00000+0  51362-3 0  9999,2 45388  53.0403 269.5460 0002294 290.5838  69.4933 15.71159673337113
STARLINK-1283,45389,53.0423,0.000128,15.65980123,369.5575948185551,371.28522577158947,1 45389U 20019AF  26111.82902394  .00051434  00000+0  49657-3 0  9999,2 45389  53.0423 259.0146 0001280 351.0145   9.0847 15.65980123337275
STARLINK-1284,45390,53.0469,0.000369,15.59379495,386.9545418328935,391.9490223540779,1 45390U 20019AG  26111.84943559  .00083675  00000+0  10361-2 0  9992,2 45390  53.0469 282.0933 0003690 214.3954 145.6820 15.59379495336941
STARLINK-1297,45395,53.0443,0.0004493,15.62758984,376.65529714514196,382.7278819156945,1 45395U 20019AM  26111.90991935  .00103521  00000+0  11214-2 0  9996,2 45395  53.0443 280.6166 0004493 221.3427 138.7246 15.62758984336151
STARLINK-1307,45397,53.0541,0.0001149,15.53554436,405.5784250209217,407.1375019635325,1 45397U 20019AP  26111.89722554  .00032904  00000+0  51341-3 0  9997,2 45397  53.0541 282.8630 0001149 110.8894 249.2239 15.53554436336760
STARLINK-1255,45399,53.0387,0.0003539,15.59939798,385.43667618716154,390.2256284453706,1 45399U 20019AR  26111.65906712  .00084003  00000+0  10182-2 0  9997,2 45399  53.0387 254.6413 0003539 307.8581  52.2110 15.59939798337127
STARLINK-1260,45404,53.1596,0.0001934,15.33532102,463.96051484626514,466.60755010162484,1 45404U 20019AW  26111.89728942  .00048908  00000+0  14895-2 0  9996,2 45404  53.1596 288.1267 0001934 265.0663  95.0118 15.33532102336592
STARLINK-1263,45405,53.1586,7.73e-05,15.31119204,471.94231307341397,473.0014172039646,1 45405U 20019AX  26111.78949021  .00038912  00000+0  12821-2 0  9999,2 45405  53.1586 289.0289 0000773  15.9695 344.1331 15.31119204336578
STARLINK-1265,45406,53.1587,0.000155,15.33666072,463.8248302681304,465.9461672427442,1 45406U 20019AY  26111.89926988  .00042922  00000+0  13041-2 0  9990,2 45406  53.1587 288.2057 0001550 247.3406 112.7433 15.33666072336595
STARLINK-1278,45408,53.0436,0.0004182,15.6405287,373.13950092840423,378.78863106000153,1 45408U 20019BA  26111.89884258  .00107770  00000+0  11090-2 0  9990,2 45408  53.0436 279.9151 0004182 259.8385 100.2157 15.64052870336706
